JILIN-01-07             
1 43159U 18008E   23076.17889081  .00007383  00000+0  41965-3 0  9997
2 43159  97.3066 123.5679 0011130 290.0290 154.4371 15.13120338284192
JILIN-01-08             
1 43160U 18008F   23076.25854553  .00006748  00000+0  38556-3 0  9990
2 43160  97.3066 123.4919 0007528 305.9726 142.8067 15.12988954284206
SBIRS GEO-3 (USA 282)   
1 43162U 18009A   23075.93521694 -.00000301  00000+0  00000+0 0  9993
2 43162   3.0457 322.9309 0001960  35.0891 291.8842  1.00270647 18928
LEMUR-2-MARSHALL        
1 43165U 18010C   23075.61930498  .00100868  00000+0  19100-2 0  9991
2 43165  82.9083 165.2216 0014143  76.3989 283.8836 15.47881579286222
LEMUR-2-TALLHAMN-ATC    
1 43167U 18010E   23075.61761594  .00043867  00000+0  11829-2 0  9997
2 43167  82.9156 173.3037 0015556 100.3529 259.9471 15.37490345285722
WEINA 1A                
1 43169U 18011A   23075.55036015  .00004227  00000+0  41663-3 0  9993
2 43169  35.0001 134.4337 0003418 191.3053 168.7574 14.91524239279980
YAOGAN-30 K             
1 43170U 18011B   23076.14111302  .00005287  00000+0  51707-3 0  9991
2 43170  34.9979 130.5239 0004994  76.2051 283.9174 14.91770209280079
YAOGAN-30 L             
1 43171U 18011C   23076.27014610  .00005347  00000+0  52307-3 0  9994
2 43171  34.9970 129.5864 0001922 129.7051 230.3781 14.91761516280098
YAOGAN-30 M             
1 43172U 18011D   23076.26467100  .00005310  00000+0  51951-3 0  9994
2 43172  34.9988 129.7522 0003552 184.3646 175.6960 14.91754127280099
AL YAH 3                
1 43174U 18012A   23076.09702209 -.00000166  00000+0  00000+0 0  9990
2 43174   0.1382  95.1365 0003045 289.2774 164.8072  1.00271147 18926
SES-14                  
1 43175U 18012B   23076.07966122 -.00000289  00000+0  00000+0 0  9991
2 43175   0.0148 164.5930 0000897 220.5048 130.4811  1.00268972 19135
KANOPUS-V 3             
1 43180U 18014A   23076.23774780  .00007258  00000+0  32834-3 0  9990
2 43180  97.4190 345.8556 0001783  84.8987  66.2459 15.21206241283972
KANOPUS-V 4             
1 43181U 18014B   23075.28310515 -.00031592  00000+0 -14250-2 0  9998
2 43181  97.4189 344.9654 0001849  85.2217  30.4097 15.21094275283843
LEMUR-2-JIN-LUEN        
1 43182U 18014C   23076.17812198  .00008157  00000+0  62000-3 0  9998
2 43182  97.6271 339.9699 0018204 108.8432 251.4769 15.02277937279781
LEMUR-2-URAMCHANSOL     
1 43183U 18014D   23075.29050676  .00009115  00000+0  68308-3 0  9998
2 43183  97.6227 339.4241 0017368 103.1959 257.1205 15.02789890279664
LEMUR-2-KADI            
1 43184U 18014E   23076.16294166  .00011261  00000+0  85909-3 0  9991
2 43184  97.6099 339.9070 0015981  87.2112 273.0941 15.02073549279772
LEMUR-2-THENICKMOLO     
1 43185U 18014F   23075.28479542  .00018093  00000+0  13674-2 0  9996
2 43185  97.6129 339.3911 0010661  92.5012 267.7433 15.02374244279652
S-NET D                 
1 43186U 18014G   23075.79927171  .00005945  00000+0  48672-3 0  9998
2 43186  97.6402 341.2860 0011851 107.1436 253.1086 14.99621207279705
S-NET B                 
1 43187U 18014H   23075.66647162  .00006257  00000+0  51210-3 0  9993
2 43187  97.6399 341.0926 0011973 107.1924 253.0611 14.99614898279687
S-NET A                 
1 43188U 18014J   23076.20053414  .00004982  00000+0  40871-3 0  9990
2 43188  97.6406 341.6970 0012063 105.7771 254.4784 14.99621434279766
S-NET C                 
1 43189U 18014K   23076.20202815  .00004985  00000+0  40900-3 0  9998
2 43189  97.6398 341.6019 0012400 105.2536 255.0059 14.99613651278314
FENGMANIU-1 (FMN-1)     
1 43192U 18015A   23075.16838495  .09853696  25597-5  22543-2 0  9992
2 43192  97.5320 239.1494 0008581 277.2576 207.7039 16.29975082285605
ZHANGHENG 1 (CSES)      
1 43194U 18015C   23076.12283582  .00022873  00000+0  10202-2 0  9993
2 43194  97.5498 212.0309 0008987 240.9707 292.1768 15.21371620284066
NUSAT-4 (ADA)           
1 43195U 18015D   23076.23251589  .00051640  00000+0  12111-2 0  9993
2 43195  97.5634 228.5804 0012622 160.7577 300.4325 15.41818778285061
GOMX-4B                 
1 43196U 18015E   23075.63277218  .00022299  00000+0  69883-3 0  9991
2 43196  97.5642 224.0529 0015674 174.1074 186.0355 15.32970710284758
GOMX-4A                 
1 43197U 18015F   23076.23162244  .00030074  00000+0  86344-3 0  9992
2 43197  97.5639 226.3324 0015523 169.4170 312.7635 15.35681924284961
SHAONIAN XING           
1 43199U 18015H   23076.24566512  .00110923  00000+0  17077-2 0  9999
2 43199  97.5380 229.6254 0008183 158.5726 282.9390 15.53779581285441
NUSAT-5 (MARYAM)        
1 43204U 18015K   23076.20963284  .00054629  00000+0  12484-2 0  9996
2 43204  97.5635 229.3716 0012154 161.7980 325.5707 15.42589933284704
BEIDOU-3 M4             
1 43207U 18018A   23075.38649428  .00000038  00000+0  00000+0 0  9994
2 43207  55.6827 102.6785 0006140 324.4995  35.5256  1.86231521 34605
BEIDOU-3 M3             
1 43208U 18018B   23075.45308561  .00000038  00000+0  00000+0 0  9993
2 43208  55.6818 102.6811 0009472 297.5184  62.4526  1.86231588 34609
PAZ                     
1 43215U 18020A   23076.19662593 -.00000509  00000+0 -21046-4 0  9997
2 43215  97.4461  84.6194 0001608  91.6489  38.4154 15.19143323280650
GOES 17                 
1 43226U 18022A   23075.58082990 -.00000098  00000+0  00000+0 0  9994
2 43226   0.0326  42.5505 0001694 357.8899 237.7879  1.00269912 18507
HISPASAT 30W-6          
1 43228U 18023A   23075.42341194 -.00000224  00000+0  00000+0 0  9995
2 43228   0.0486  38.9043 0005263 335.3663 281.8661  1.00272337 18524
PODSAT                  
1 43229U 18023B   23075.61239518  .00035816  00000+0  67220-3 0  9998
2 43229  26.8557 232.4325 4367459 286.2888  31.0659  6.86057396102418
O3B FM15                
1 43231U 18024A   23075.34277558 -.00000019  00000+0  00000+0 0  9995
2 43231   0.0556   6.8124 0002990 345.7195   7.4602  5.00116345 91550
O3B FM16                
1 43232U 18024B   23075.99590735 -.00000021  00000+0  00000+0 0  9995
2 43232   0.0583  10.0071 0003001 343.6799   6.3054  5.00116078 91743
O3B FM14                
1 43233U 18024C   23075.43608120 -.00000020  00000+0  00000+0 0  9992
2 43233   0.0587  11.5437 0003051 345.4052   3.0458  5.00115559 91719
O3B FM13                
1 43234U 18024D   23073.49077046 -.00000016  00000+0  00000+0 0  9999
2 43234   0.0652 352.4303 0003686 351.0162  16.5393  5.00115073 91506
LKW-4                   
1 43236U 18025A   23075.91451307  .00015264  00000+0  59783-3 0  9993
2 43236  97.4984 201.7622 0004153 114.9477 245.2192 15.25881771277946
BEIDOU-3 M9             
1 43245U 18029A   23075.82166311 -.00000080  00000+0  00000+0 0  9990
2 43245  55.1096 341.1046 0001435 341.8188 115.4087  1.86232626 33762
BEIDOU-3 M10            
1 43246U 18029B   23075.52105220 -.00000079  00000+0  10000-3 0  9993
2 43246  55.1083 341.1471 0005271   1.1566 301.2704  1.86232766 33743
IRIDIUM 144             
1 43249U 18030A   23075.72387905  .00000629  00000+0  21747-3 0  9992
2 43249  86.3927  67.1066 0002083  93.2107 266.9327 14.34216816259793
IRIDIUM 149             
1 43250U 18030B   23075.73022221  .00000272  00000+0  90019-4 0  9995
2 43250  86.3927  67.0837 0002073  95.4321 264.7111 14.34218394259814
IRIDIUM 157             
1 43251U 18030C   23076.23762910 -.00000120  00000+0 -49923-4 0  9990
2 43251  86.3928  66.8988 0002292  83.0581 277.0875 14.34216816259860
IRIDIUM 140             
1 43252U 18030D   23075.69850807  .00000107  00000+0  31058-4 0  9996
2 43252  86.3928  67.1389 0001998  94.9023 265.2401 14.34216446259845
IRIDIUM 145             
1 43253U 18030E   23075.89512935  .00000678  00000+0  23504-3 0  9995
2 43253  86.3927  67.0318 0002354 101.4624 258.6836 14.34217020259807
IRIDIUM 146             
1 43254U 18030F   23076.22494498  .00000267  00000+0  88150-4 0  9990
2 43254  86.3927  66.9095 0002334  96.3713 263.7748 14.34218630259860
IRIDIUM 148             
1 43255U 18030G   23075.70485446  .00000282  00000+0  93518-4 0  9997
2 43255  86.3927  67.1530 0002441  90.0185 270.1291 14.34217649259832
IRIDIUM 142             
1 43256U 18030H   23075.67314250  .00000293  00000+0  97575-4 0  9997
2 43256  86.3924  67.0985 0002263  89.8095 270.3360 14.34218143259784
IRIDIUM 150             
1 43257U 18030J   23075.71119515  .00000275  00000+0  91230-4 0  9992
2 43257  86.3927  67.1604 0002013  91.9687 268.1739 14.34218173259813
IRIDIUM 143             
1 43258U 18030K   23075.90147120  .00000277  00000+0  91861-4 0  9999
2 43258  86.3930  67.1253 0002205  95.3634 264.7813 14.34218279259778
GAOFEN 1-02             
1 43259U 18031A   23076.28008282  .00002551  00000+0  37301-3 0  9993
2 43259  97.8700 151.5819 0003478 184.5259 175.5912 14.76536351267402
GAOFEN 1-03             
1 43260U 18031B   23076.05494043  .00002554  00000+0  37321-3 0  9999
2 43260  97.8693 151.3134 0003958 281.5177  78.5577 14.76567739267361
GAOFEN 1-04             
1 43262U 18031D   23076.16589641  .00002442  00000+0  35720-3 0  9999
2 43262  97.8702 151.4824 0003400 213.4799 146.6207 14.76555455267377
SUPERBIRD-B3            
1 43271U 18033A   23075.82063466 -.00000102  00000+0  00000+0 0  9996
2 43271   0.0179 233.7676 0001008 144.6600 253.1089  1.00272050 18138
HYLAS 4                 
1 43272U 18033B   23075.42341194 -.00000241  00000+0  00000+0 0  9994
2 43272   0.0864 270.0950 0001590 109.9231 272.6389  1.00270767 18153
YAOGAN-31 A             
1 43275U 18034A   23076.12926510 -.00000090  00000+0  00000+0 0  9999
2 43275  63.4010 265.7915 0168993   4.2458 355.9966 13.45258471242383
YAOGAN-31 B             
1 43276U 18034B   23076.12946314 -.00000090  00000+0  00000+0 0  9994
2 43276  63.4011 265.7757 0169198   4.2113 356.0285 13.45258489242380
YAOGAN-31 C             
1 43277U 18034C   23076.12929275 -.00000090  00000+0  00000+0 0  9992
2 43277  63.4020 265.0306 0169177   4.0820 356.1553 13.45258823242408
